[{"OBJECT_NAME":"SJ-7","OBJECT_ID":"2005-024A","EPOCH":"2026-03-09T19:15:10.985472","MEAN_MOTION":15.19970131,"ECCENTRICITY":0.00167613,"INCLINATION":97.7412,"RA_OF_ASC_NODE":96.2911,"ARG_OF_PERICENTER":23.4499,"MEAN_ANOMALY":336.7495,"EPHEMERIS_TYPE":0,"CLASSIFICATION_TYPE":"U","NORAD_CAT_ID":28737,"ELEMENT_SET_NO":999,"REV_AT_EPOCH":13292,"BSTAR":0.00046264907,"MEAN_MOTION_DOT":9.925e-5,"MEAN_MOTION_DDOT":0},{"OBJECT_NAME":"OBJECT F","OBJECT_ID":"2023-091F","EPOCH":"2026-03-09T22:26:06.799488","MEAN_MOTION":15.22515502,"ECCENTRICITY":0.0012878,"INCLINATION":97.5231,"RA_OF_ASC_NODE":130.3577,"ARG_OF_PERICENTER":100.6008,"MEAN_ANOMALY":259.6679,"EPHEMERIS_TYPE":0,"CLASSIFICATION_TYPE":"U","NORAD_CAT_ID":57171,"ELEMENT_SET_NO":999,"REV_AT_EPOCH":14905,"BSTAR":0.00043192506,"MEAN_MOTION_DOT":9.968e-5,"MEAN_MOTION_DDOT":0}]
